{
  "type": "FeatureCollection",
  "name": "fictional_county_schema_fixture",
  "features": [
    {
      "type": "Feature",
      "id": "51059",
      "properties": {"county_fips": "51059", "county_name": "Example County", "state_abbr": "VA", "operating_count": 1, "data_status": "fixture"},
      "geometry": {"type": "Polygon", "coordinates": [[[-77.85, 38.72], [-77.45, 38.72], [-77.45, 39.18], [-77.85, 39.18], [-77.85, 38.72]]]}
    },
    {
      "type": "Feature",
      "id": "51107",
      "properties": {"county_fips": "51107", "county_name": "Adjacent County", "state_abbr": "VA", "operating_count": 0, "data_status": "fixture"},
      "geometry": {"type": "Polygon", "coordinates": [[[-77.45, 38.72], [-77.05, 38.72], [-77.05, 39.18], [-77.45, 39.18], [-77.45, 38.72]]]}
    }
  ]
}

